{
  "type": "FeatureCollection",
  "features": [
    {
      "type": "Feature",
      "properties": {
        "norad_id": 31185,
        "name": "FENGYUN 1C DEB",
        "group": "fengyun-1c-debris",
        "lat": 64.3336344587474,
        "lon": -29.607756843462564,
        "alt_km": 849.281225987922,
        "timestamp": "2025-12-18T23:35:49.341423+00:00",
        "meta_object_name": "FENGYUN 1C DEB",
        "meta_object_id": "1999-025BJP",
        "meta_epoch": "2025-12-03T06:44:56.905152",
        "meta_mean_motion": 14.03019915,
        "meta_eccentricity": 0.0041359,
        "meta_inclination": 98.8321,
        "meta_ra_of_asc_node": 334.0356,
        "meta_arg_of_pericenter": 132.5488,
        "meta_mean_anomaly": 227.9182,
        "meta_ephemeris_type": 0,
        "meta_classification_type": "U",
        "meta_norad_cat_id": 31185,
        "meta_element_set_no": 999,
        "meta_rev_at_epoch": 62204,
        "meta_bstar": 0.0004459,
        "meta_mean_motion_dot": 6.55e-06,
        "meta_mean_motion_ddot": 0,
        "tle_line1": "1 31185U 99025BJP 25337.28121418  .00000655  00000+0  44590-3 0  9990",
        "tle_line2": "2 31185  98.8321 334.0356 0041359 132.5488 227.9182 14.03019915622046"
      },
      "geometry": {
        "type": "Point",
        "coordinates": [
          -29.607756843462564,
          64.3336344587474
        ]
      }
    },
    {
      "type": "Feature",
      "properties": {
        "norad_id": 31186,
        "name": "FENGYUN 1C DEB",
        "group": "fengyun-1c-debris",
        "lat": 66.57494511318788,
        "lon": 110.40402164927067,
        "alt_km": 835.2096160802539,
        "timestamp": "2025-12-18T23:35:49.341433+00:00",
        "meta_object_name": "FENGYUN 1C DEB",
        "meta_object_id": "1999-025BJQ",
        "meta_epoch": "2025-12-07T00:08:36.055104",
        "meta_mean_motion": 14.12891869,
        "meta_eccentricity": 0.00265947,
        "meta_inclination": 99.1777,
        "meta_ra_of_asc_node": 256.2241,
        "meta_arg_of_pericenter": 78.4554,
        "meta_mean_anomaly": 344.6063,
        "meta_ephemeris_type": 0,
        "meta_classification_type": "U",
        "meta_norad_cat_id": 31186,
        "meta_element_set_no": 999,
        "meta_rev_at_epoch": 96024,
        "meta_bstar": 0.00076036897,
        "meta_mean_motion_dot": 1.373e-05,
        "meta_mean_motion_ddot": 0,
        "tle_line1": "1 31186U 99025BJQ 25341.00597286  .00001373  00000+0  76037-3 0  9995",
        "tle_line2": "2 31186  99.1777 256.2241 0026594  78.4554 344.6063 14.12891869960248"
      },
      "geometry": {
        "type": "Point",
        "coordinates": [
          110.40402164927067,
          66.57494511318788
        ]
      }
    },
    {
      "type": "Feature",
      "properties": {
        "norad_id": 31187,
        "name": "FENGYUN 1C DEB",
        "group": "fengyun-1c-debris",
        "lat": -29.294849545285533,
        "lon": -137.61640705778552,
        "alt_km": 788.6094808644111,
        "timestamp": "2025-12-18T23:35:49.341443+00:00",
        "meta_object_name": "FENGYUN 1C DEB",
        "meta_object_id": "1999-025BJR",
        "meta_epoch": "2025-12-18T02:20:54.271104",
        "meta_mean_motion": 14.59549756,
        "meta_eccentricity": 0.02196552,
        "meta_inclination": 99.2414,
        "meta_ra_of_asc_node": 216.1564,
        "meta_arg_of_pericenter": 207.4437,
        "meta_mean_anomaly": 151.5021,
        "meta_ephemeris_type": 0,
        "meta_classification_type": "U",
        "meta_norad_cat_id": 31187,
        "meta_element_set_no": 999,
        "meta_rev_at_epoch": 69178,
        "meta_bstar": 0.0021858268,
        "meta_mean_motion_dot": 0.00014532,
        "meta_mean_motion_ddot": 0,
        "tle_line1": "1 31187U 99025BJR 25352.09785036  .00014532  00000+0  21858-2 0  9990",
        "tle_line2": "2 31187  99.2414 216.1564 0219655 207.4437 151.5021 14.59549756691782"
      },
      "geometry": {
        "type": "Point",
        "coordinates": [
          -137.61640705778552,
          -29.294849545285533
        ]
      }
    },
    {
      "type": "Feature",
      "properties": {
        "norad_id": 31188,
        "name": "FENGYUN 1C DEB",
        "group": "fengyun-1c-debris",
        "lat": 41.465930019467685,
        "lon": 52.91854312018024,
        "alt_km": 851.9382958034075,
        "timestamp": "2025-12-18T23:35:49.341453+00:00",
        "meta_object_name": "FENGYUN 1C DEB",
        "meta_object_id": "1999-025BJS",
        "meta_epoch": "2025-12-18T12:11:17.333664",
        "meta_mean_motion": 14.23861687,
        "meta_eccentricity": 0.00606265,
        "meta_inclination": 98.7493,
        "meta_ra_of_asc_node": 60.267,
        "meta_arg_of_pericenter": 232.9769,
        "meta_mean_anomaly": 253.727,
        "meta_ephemeris_type": 0,
        "meta_classification_type": "U",
        "meta_norad_cat_id": 31188,
        "meta_element_set_no": 999,
        "meta_rev_at_epoch": 96418,
        "meta_bstar": 0.0012167761,
        "meta_mean_motion_dot": 2.796e-05,
        "meta_mean_motion_ddot": 0,
        "tle_line1": "1 31188U 99025BJS 25352.50783951  .00002796  00000+0  12168-2 0  9994",
        "tle_line2": "2 31188  98.7493  60.2670 0060626 232.9769 253.7270 14.23861687964182"
      },
      "geometry": {
        "type": "Point",
        "coordinates": [
          52.91854312018024,
          41.465930019467685
        ]
      }
    },
    {
      "type": "Feature",
      "properties": {
        "norad_id": 31190,
        "name": "FENGYUN 1C DEB",
        "group": "fengyun-1c-debris",
        "lat": 71.99853520733218,
        "lon": -145.94013187184063,
        "alt_km": 909.6104634615385,
        "timestamp": "2025-12-18T23:35:49.341464+00:00",
        "meta_object_name": "FENGYUN 1C DEB",
        "meta_object_id": "1999-025BJU",
        "meta_epoch": "2025-12-15T23:14:05.075520",
        "meta_mean_motion": 14.03609027,
        "meta_eccentricity": 0.00676763,
        "meta_inclination": 98.819,
        "meta_ra_of_asc_node": 2.5971,
        "meta_arg_of_pericenter": 250.3103,
        "meta_mean_anomaly": 109.0754,
        "meta_ephemeris_type": 0,
        "meta_classification_type": "U",
        "meta_norad_cat_id": 31190,
        "meta_element_set_no": 999,
        "meta_rev_at_epoch": 95592,
        "meta_bstar": 0.00091857664,
        "meta_mean_motion_dot": 1.428e-05,
        "meta_mean_motion_ddot": 0,
        "tle_line1": "1 31190U 99025BJU 25349.96811430  .00001428  00000+0  91858-3 0  9992",
        "tle_line2": "2 31190  98.8190   2.5971 0067676 250.3103 109.0754 14.03609027955929"
      },
      "geometry": {
        "type": "Point",
        "coordinates": [
          -145.94013187184063,
          71.99853520733218
        ]
      }
    },
    {
      "type": "Feature",
      "properties": {
        "norad_id": 31191,
        "name": "FENGYUN 1C DEB",
        "group": "fengyun-1c-debris",
        "lat": 81.00102877656205,
        "lon": 151.5231577263308,
        "alt_km": 740.7413262437467,
        "timestamp": "2025-12-18T23:35:49.341474+00:00",
        "meta_object_name": "FENGYUN 1C DEB",
        "meta_object_id": "1999-025BJV",
        "meta_epoch": "2025-12-18T13:10:01.794432",
        "meta_mean_motion": 14.40803712,
        "meta_eccentricity": 0.00925227,
        "meta_inclination": 98.7828,
        "meta_ra_of_asc_node": 253.5953,
        "meta_arg_of_pericenter": 177.1077,
        "meta_mean_anomaly": 183.0665,
        "meta_ephemeris_type": 0,
        "meta_classification_type": "U",
        "meta_norad_cat_id": 31191,
        "meta_element_set_no": 999,
        "meta_rev_at_epoch": 98096,
        "meta_bstar": 0.00024319393,
        "meta_mean_motion_dot": 7.7e-06,
        "meta_mean_motion_ddot": 0,
        "tle_line1": "1 31191U 99025BJV 25352.54863188  .00000770  00000+0  24319-3 0  9995",
        "tle_line2": "2 31191  98.7828 253.5953 0092522 177.1077 183.0665 14.40803712980962"
      },
      "geometry": {
        "type": "Point",
        "coordinates": [
          151.5231577263308,
          81.00102877656205
        ]
      }
    },
    {
      "type": "Feature",
      "properties": {
        "norad_id": 31192,
        "name": "FENGYUN 1C DEB",
        "group": "fengyun-1c-debris",
        "lat": -81.42089225936725,
        "lon": 70.4826866111489,
        "alt_km": 1016.0068200698206,
        "timestamp": "2025-12-18T23:35:49.341485+00:00",
        "meta_object_name": "FENGYUN 1C DEB",
        "meta_object_id": "1999-025BJW",
        "meta_epoch": "2025-12-18T05:26:47.399136",
        "meta_mean_motion": 14.20969234,
        "meta_eccentricity": 0.02596771,
        "meta_inclination": 98.5531,
        "meta_ra_of_asc_node": 335.7459,
        "meta_arg_of_pericenter": 87.8687,
        "meta_mean_anomaly": 275.22,
        "meta_ephemeris_type": 0,
        "meta_classification_type": "U",
        "meta_norad_cat_id": 31192,
        "meta_element_set_no": 999,
        "meta_rev_at_epoch": 96821,
        "meta_bstar": 0.00023851293,
        "meta_mean_motion_dot": 6.81e-06,
        "meta_mean_motion_ddot": 0,
        "tle_line1": "1 31192U 99025BJW 25352.22693749  .00000681  00000+0  23851-3 0  9996",
        "tle_line2": "2 31192  98.5531 335.7459 0259677  87.8687 275.2200 14.20969234968219"
      },
      "geometry": {
        "type": "Point",
        "coordinates": [
          70.4826866111489,
          -81.42089225936725
        ]
      }
    }
  ]
}